LEMUR-2-GREENBERG       
1 42837U 17042N   26068.46200528  .00019778  00000+0  72539-3 0  9997
2 42837  97.3781 249.8007 0009157   4.0119 356.1192 15.27971352473146
STARLINK-34149          
1 64140U 25111T   26068.03444666  .00049457  00000+0  17930-2 0  9990
2 64140  43.0106  81.5356 0002015 297.0909  62.9737 15.27611973 45367
